[{"OBJECT_NAME":"BANE","OBJECT_ID":"2023-185D","EPOCH":"2026-03-09T22:38:54.916224","MEAN_MOTION":15.6846319,"ECCENTRICITY":0.00050193,"INCLINATION":97.3445,"RA_OF_ASC_NODE":151.472,"ARG_OF_PERICENTER":176.385,"MEAN_ANOMALY":183.7448,"EPHEMERIS_TYPE":0,"CLASSIFICATION_TYPE":"U","NORAD_CAT_ID":58465,"ELEMENT_SET_NO":999,"REV_AT_EPOCH":12713,"BSTAR":0.00097597303,"MEAN_MOTION_DOT":0.00111172,"MEAN_MOTION_DDOT":0},{"OBJECT_NAME":"STARLINK-11341 [DTC]","OBJECT_ID":"2024-195K","EPOCH":"2026-03-09T07:03:32.831136","MEAN_MOTION":15.69703073,"ECCENTRICITY":0.00017492,"INCLINATION":53.1583,"RA_OF_ASC_NODE":28.0483,"ARG_OF_PERICENTER":127.4696,"MEAN_ANOMALY":232.6482,"EPHEMERIS_TYPE":0,"CLASSIFICATION_TYPE":"U","NORAD_CAT_ID":61696,"ELEMENT_SET_NO":999,"REV_AT_EPOCH":7897,"BSTAR":-7.294224e-6,"MEAN_MOTION_DOT":-1.473e-5,"MEAN_MOTION_DDOT":0}]
